{"type": "FeatureCollection", "features": [ {"type": "Feature", "properties": {"norad_id": 57401, "name": "TIANMU-1 09", "group": "weather", "lat": -35.232095481077984, "lon": -136.3738299704811, "alt_km": 491.4767908145068, "timestamp": "2025-12-25T22:42:16.639925+00:00", "meta": {"OBJECT_NAME": "TIANMU-1 09", "OBJECT_ID": "2023-101C", "EPOCH": "2025-12-25T17:03:02.677824", "MEAN_MOTION": 15.28271315, "ECCENTRICITY": 0.0006182, "INCLINATION": 97.2802, "RA_OF_ASC_NODE": 48.5762, "ARG_OF_PERICENTER": 48.0665, "MEAN_ANOMALY": 312.1101, "EPHEMERIS_TYPE": 0, "CLASSIFICATION_TYPE": "U", "NORAD_CAT_ID": 57401, "ELEMENT_SET_NO": 999, "REV_AT_EPOCH": 13513, "BSTAR": 0.00027805, "MEAN_MOTION_DOT": 7.59e-05, "MEAN_MOTION_DDOT": 0}, "tle": {"line1": "1 57401U 23101C   25359.71044766  .00007590  00000+0  27805-3 0  9998", "line2": "2 57401  97.2802  48.5762 0006182  48.0665 312.1101 15.28271315135132"}}, "geometry": {"type": "Point", "coordinates": [-136.3738299704811, -35.232095481077984]}}, {"type": "Feature", "properties": {"norad_id": 57402, "name": "TIANMU-1 10", "group": "weather", "lat": 26.603474676701595, "lon": 45.99521990014119, "alt_km": 474.9439393361763, "timestamp": "2025-12-25T22:42:16.639935+00:00", "meta": {"OBJECT_NAME": "TIANMU-1 10", "OBJECT_ID": "2023-101D", "EPOCH": "2025-12-25T17:52:24.425760", "MEAN_MOTION": 15.28264345, "ECCENTRICITY": 0.0007888, "INCLINATION": 97.2882, "RA_OF_ASC_NODE": 49.4734, "ARG_OF_PERICENTER": 45.2466, "MEAN_ANOMALY": 314.9415, "EPHEMERIS_TYPE": 0, "CLASSIFICATION_TYPE": "U", "NORAD_CAT_ID": 57402, "ELEMENT_SET_NO": 999, "REV_AT_EPOCH": 13513, "BSTAR": 0.00029154, "MEAN_MOTION_DOT": 7.963e-05, "MEAN_MOTION_DDOT": 0}, "tle": {"line1": "1 57402U 23101D   25359.74472715  .00007963  00000+0  29154-3 0  9994", "line2": "2 57402  97.2882  49.4734 0007888  45.2466 314.9415 15.28264345135135"}}, "geometry": {"type": "Point", "coordinates": [45.99521990014119, 26.603474676701595]}}, {"type": "Feature", "properties": {"norad_id": 57490, "name": "FENGYUN 3F", "group": "weather", "lat": -7.826094718206332, "lon": -113.1815095653687, "alt_km": 829.375081867458, "timestamp": "2025-12-25T22:42:16.639945+00:00", "meta": {"OBJECT_NAME": "FENGYUN 3F", "OBJECT_ID": "2023-111A", "EPOCH": "2025-12-25T18:26:26.068128", "MEAN_MOTION": 14.19896971, "ECCENTRICITY": 8.44e-05, "INCLINATION": 98.7066, "RA_OF_ASC_NODE": 67.8506, "ARG_OF_PERICENTER": 117.7711, "MEAN_ANOMALY": 242.3551, "EPHEMERIS_TYPE": 0, "CLASSIFICATION_TYPE": "U", "NORAD_CAT_ID": 57490, "ELEMENT_SET_NO": 999, "REV_AT_EPOCH": 12425, "BSTAR": 5.9999e-05, "MEAN_MOTION_DOT": 8.4e-07, "MEAN_MOTION_DDOT": 0}, "tle": {"line1": "1 57490U 23111A   25359.76835727  .00000084  00000+0  59999-4 0  9998", "line2": "2 57490  98.7066  67.8506 0000844 117.7711 242.3551 14.19896971124257"}}, "geometry": {"type": "Point", "coordinates": [-113.1815095653687, -7.826094718206332]}}, {"type": "Feature", "properties": {"norad_id": 58584, "name": "ARKTIKA-M 2", "group": "weather", "lat": 59.753033809152264, "lon": -126.54449305759645, "alt_km": 36145.660601923584, "timestamp": "2025-12-25T22:42:16.639958+00:00", "meta": {"OBJECT_NAME": "ARKTIKA-M 2", "OBJECT_ID": "2023-198A", "EPOCH": "2025-12-24T19:00:30.507264", "MEAN_MOTION": 2.00602347, "ECCENTRICITY": 0.6865959, "INCLINATION": 63.2255, "RA_OF_ASC_NODE": 173.58, "ARG_OF_PERICENTER": 268.0557, "MEAN_ANOMALY": 18.8416, "EPHEMERIS_TYPE": 0, "CLASSIFICATION_TYPE": "U", "NORAD_CAT_ID": 58584, "ELEMENT_SET_NO": 999, "REV_AT_EPOCH": 1482, "BSTAR": 0, "MEAN_MOTION_DOT": 2.24e-06, "MEAN_MOTION_DDOT": 0}, "tle": {"line1": "1 58584U 23198A   25358.79201976  .00000224  00000+0  00000+0 0  9993", "line2": "2 58584  63.2255 173.5800 6865959 268.0557  18.8416  2.00602347 14827"}}, "geometry": {"type": "Point", "coordinates": [-126.54449305759645, 59.753033809152264]}}, {"type": "Feature", "properties": {"norad_id": 58645, "name": "TIANMU-1 11", "group": "weather", "lat": 39.92418841043113, "lon": 13.12767118329952, "alt_km": 492.8339129574051, "timestamp": "2025-12-25T22:42:16.639969+00:00", "meta": {"OBJECT_NAME": "TIANMU-1 11", "OBJECT_ID": "2023-205A", "EPOCH": "2025-12-25T17:48:11.152800", "MEAN_MOTION": 15.24754179, "ECCENTRICITY": 0.0007573, "INCLINATION": 97.3598, "RA_OF_ASC_NODE": 19.1366, "ARG_OF_PERICENTER": 254.5973, "MEAN_ANOMALY": 105.4429, "EPHEMERIS_TYPE": 0, "CLASSIFICATION_TYPE": "U", "NORAD_CAT_ID": 58645, "ELEMENT_SET_NO": 999, "REV_AT_EPOCH": 11107, "BSTAR": 0.0002833, "MEAN_MOTION_DOT": 6.952e-05, "MEAN_MOTION_DDOT": 0}, "tle": {"line1": "1 58645U 23205A   25359.74179575  .00006952  00000+0  28330-3 0  9999", "line2": "2 58645  97.3598  19.1366 0007573 254.5973 105.4429 15.24754179111074"}}, "geometry": {"type": "Point", "coordinates": [13.12767118329952, 39.92418841043113]}}, {"type": "Feature", "properties": {"norad_id": 58646, "name": "TIANMU-1 12", "group": "weather", "lat": -66.08469546281461, "lon": -177.80478595519864, "alt_km": 495.1299589946775, "timestamp": "2025-12-25T22:42:16.639982+00:00", "meta": {"OBJECT_NAME": "TIANMU-1 12", "OBJECT_ID": "2023-205B", "EPOCH": "2025-12-25T16:53:53.705184", "MEAN_MOTION": 15.24640592, "ECCENTRICITY": 0.0006026, "INCLINATION": 97.3586, "RA_OF_ASC_NODE": 18.9006, "ARG_OF_PERICENTER": 232.5219, "MEAN_ANOMALY": 127.5471, "EPHEMERIS_TYPE": 0, "CLASSIFICATION_TYPE": "U", "NORAD_CAT_ID": 58646, "ELEMENT_SET_NO": 999, "REV_AT_EPOCH": 11105, "BSTAR": 0.0002567, "MEAN_MOTION_DOT": 6.269e-05, "MEAN_MOTION_DDOT": 0}, "tle": {"line1": "1 58646U 23205B   25359.70409381  .00006269  00000+0  25670-3 0  9992", "line2": "2 58646  97.3586  18.9006 0006026 232.5219 127.5471 15.24640592111054"}}, "geometry": {"type": "Point", "coordinates": [-177.80478595519864, -66.08469546281461]}}, {"type": "Feature", "properties": {"norad_id": 58647, "name": "TIANMU-1 13", "group": "weather", "lat": 64.06266942582322, "lon": 3.930066836086192, "alt_km": 489.2743210781564, "timestamp": "2025-12-25T22:42:16.639992+00:00", "meta": {"OBJECT_NAME": "TIANMU-1 13", "OBJECT_ID": "2023-205C", "EPOCH": "2025-12-25T17:41:40.609248", "MEAN_MOTION": 15.24684662, "ECCENTRICITY": 0.0006707, "INCLINATION": 97.3614, "RA_OF_ASC_NODE": 19.1398, "ARG_OF_PERICENTER": 210.7157, "MEAN_ANOMALY": 149.3689, "EPHEMERIS_TYPE": 0, "CLASSIFICATION_TYPE": "U", "NORAD_CAT_ID": 58647, "ELEMENT_SET_NO": 999, "REV_AT_EPOCH": 11105, "BSTAR": 0.00028954, "MEAN_MOTION_DOT": 7.091e-05, "MEAN_MOTION_DDOT": 0}, "tle": {"line1": "1 58647U 23205C   25359.73727557  .00007091  00000+0  28954-3 0  9996", "line2": "2 58647  97.3614  19.1398 0006707 210.7157 149.3689 15.24684662111058"}}, "geometry": {"type": "Point", "coordinates": [3.930066836086192, 64.06266942582322]}}, {"type": "Feature", "properties": {"norad_id": 58648, "name": "TIANMU-1 14", "group": "weather", "lat": 24.35306343484505, "lon": -157.9668926519613, "alt_km": 488.75427724587917, "timestamp": "2025-12-25T22:42:16.640003+00:00", "meta": {"OBJECT_NAME": "TIANMU-1 14", "OBJECT_ID": "2023-205D", "EPOCH": "2025-12-25T17:17:58.746048", "MEAN_MOTION": 15.24667497, "ECCENTRICITY": 0.0007398, "INCLINATION": 97.3546, "RA_OF_ASC_NODE": 18.4604, "ARG_OF_PERICENTER": 216.8239, "MEAN_ANOMALY": 143.2491, "EPHEMERIS_TYPE": 0, "CLASSIFICATION_TYPE": "U", "NORAD_CAT_ID": 58648, "ELEMENT_SET_NO": 999, "REV_AT_EPOCH": 11105, "BSTAR": 0.00026964, "MEAN_MOTION_DOT": 6.596e-05, "MEAN_MOTION_DDOT": 0}, "tle": {"line1": "1 58648U 23205D   25359.72081882  .00006596  00000+0  26964-3 0  9998", "line2": "2 58648  97.3546  18.4604 0007398 216.8239 143.2491 15.24667497111051"}}, "geometry": {"type": "Point", "coordinates": [-157.9668926519613, 24.35306343484505]}}, {"type": "Feature", "properties": {"norad_id": 58660, "name": "TIANMU-1 19", "group": "weather", "lat": -30.628991379726465, "lon": -73.47799032664865, "alt_km": 484.3735696425074, "timestamp": "2025-12-25T22:42:16.640013+00:00", "meta": {"OBJECT_NAME": "TIANMU-1 19", "OBJECT_ID": "2023-208A", "EPOCH": "2025-12-25T18:38:29.981760", "MEAN_MOTION": 15.28086505, "ECCENTRICITY": 0.0004841, "INCLINATION": 97.4387, "RA_OF_ASC_NODE": 110.7898, "ARG_OF_PERICENTER": 197.8826, "MEAN_ANOMALY": 162.2244, "EPHEMERIS_TYPE": 0, "CLASSIFICATION_TYPE": "U", "NORAD_CAT_ID": 58660, "ELEMENT_SET_NO": 999, "REV_AT_EPOCH": 11081, "BSTAR": 0.00037065, "MEAN_MOTION_DOT": 0.00010083, "MEAN_MOTION_DDOT": 0}, "tle": {"line1": "1 58660U 23208A   25359.77673590  .00010083  00000+0  37065-3 0  9993", "line2": "2 58660  97.4387 110.7898 0004841 197.8826 162.2244 15.28086505110819"}}, "geometry": {"type": "Point", "coordinates": [-73.47799032664865, -30.628991379726465]}}, {"type": "Feature", "properties": {"norad_id": 58661, "name": "TIANMU-1 20", "group": "weather", "lat": -18.369050213132343, "lon": 113.90373308081936, "alt_km": 486.12150951365675, "timestamp": "2025-12-25T22:42:16.640023+00:00", "meta": {"OBJECT_NAME": "TIANMU-1 20", "OBJECT_ID": "2023-208B", "EPOCH": "2025-12-25T18:04:27.866784", "MEAN_MOTION": 15.29275363, "ECCENTRICITY": 0.0006859, "INCLINATION": 97.4325, "RA_OF_ASC_NODE": 111.2265, "ARG_OF_PERICENTER": 212.3922, "MEAN_ANOMALY": 147.6898, "EPHEMERIS_TYPE": 0, "CLASSIFICATION_TYPE": "U", "NORAD_CAT_ID": 58661, "ELEMENT_SET_NO": 999, "REV_AT_EPOCH": 11088, "BSTAR": 0.00034981, "MEAN_MOTION_DOT": 9.868e-05, "MEAN_MOTION_DDOT": 0}, "tle": {"line1": "1 58661U 23208B   25359.75310031  .00009868  00000+0  34981-3 0  9993", "line2": "2 58661  97.4325 111.2265 0006859 212.3922 147.6898 15.29275363110889"}}, "geometry": {"type": "Point", "coordinates": [113.90373308081936, -18.369050213132343]}}]}